STARLINK-37083          
1 68227U 26053W   26093.28014113  .00225958  00000+0  11468-2 0  9993
2 68227  97.2845 328.8123 0001372  86.4895 273.6530 15.80879880  3915
STARLINK-37050          
1 68228U 26053X   26093.27862734  .00173279  00000+0  88452-3 0  9999
2 68228  97.2846 328.8147 0001031  90.4493 269.6894 15.80890533  3921
STARLINK-37081          
1 68229U 26053Y   26093.22932580  .00068178  00000+0  45436-3 0  9998
2 68229  97.2835 328.7296 0001290  86.6994 273.4419 15.75187931  3936
STARLINK-37100          
1 68230U 26053Z   26093.27788391  .00206778  00000+0  10516-2 0  9994
2 68230  97.2848 328.8155 0001662  92.2504 267.8954 15.80882902  3948
STARLINK-37104          
1 68231U 26053AA  26093.27712876  .00146085  00000+0  74867-3 0  9994
2 68231  97.2848 328.8161 0001175 117.3885 242.7503 15.80875417  3941
STARLINK-37027          
1 68232U 26054A   26093.30180545  .00149049  00000+0  95867-3 0  9998
2 68232  53.1600 189.5312 0001334 105.7299 254.3869 15.75257496  2663
STARLINK-37132          
1 68233U 26054B   26093.28375924  .00562402  00000+0  26606-2 0  9999
2 68233  53.1588 189.4109 0001770 160.3273 199.7818 15.80963124  2669
STARLINK-37101          
1 68234U 26054C   26093.25001157  .00104744  00000+0  68236-3 0  9998
2 68234  53.1591 189.6857 0001418  96.7206  19.1759 15.75126142  3860
STARLINK-36963          
1 68235U 26054D   26093.29759262  .00130410  00000+0  84108-3 0  9995
2 68235  53.1597 189.5025 0001685 138.2294 221.8855 15.75259296  2661
STARLINK-37127          
1 68236U 26054E   26093.30666760  .00262635  00000+0  16593-2 0  9995
2 68236  53.1594 189.5628 0001247 101.4500 258.6660 15.75314421  2668
STARLINK-37095          
1 68237U 26054F   26093.30212844  .00201618  00000+0  12858-2 0  9990
2 68237  53.1599 189.5329 0001690 142.9182 217.1956 15.75284359  2664
STARLINK-37097          
1 68238U 26054G   26093.27999998  .00209780  00000+0  10389-2 0  9994
2 68238  53.1581 189.3854 0001153  96.7769 263.3385 15.80911571  2666
