CCSDS_OMM_VERS = 2.0
CREATION_DATE  = 
ORIGINATOR     = 

OBJECT_NAME    = STARLINK-37083
OBJECT_ID      = 2026-053W
CENTER_NAME    = EARTH
REF_FRAME      = TEME
TIME_SYSTEM    = UTC
MEAN_ELEMENT_THEORY = SGP/SGP4

EPOCH          = 2026-04-03T06:43:24.193632
MEAN_MOTION    = 15.80879880
ECCENTRICITY   = .00013724
INCLINATION    = 97.2845
RA_OF_ASC_NODE = 328.8123
ARG_OF_PERICENTER = 86.4895
MEAN_ANOMALY   = 273.6530

EPHEMERIS_TYPE = 0
CLASSIFICATION_TYPE = U
NORAD_CAT_ID   = 68227
ELEMENT_SET_NO = 999
REV_AT_EPOCH   = 391
BSTAR          = .11467559E-2
MEAN_MOTION_DOT = .225958E-2
MEAN_MOTION_DDOT = 0

CCSDS_OMM_VERS = 2.0
CREATION_DATE  = 
ORIGINATOR     = 

OBJECT_NAME    = STARLINK-37050
OBJECT_ID      = 2026-053X
CENTER_NAME    = EARTH
REF_FRAME      = TEME
TIME_SYSTEM    = UTC
MEAN_ELEMENT_THEORY = SGP/SGP4

EPOCH          = 2026-04-03T06:41:13.402176
MEAN_MOTION    = 15.80890533
ECCENTRICITY   = .00010314
INCLINATION    = 97.2846
RA_OF_ASC_NODE = 328.8147
ARG_OF_PERICENTER = 90.4493
MEAN_ANOMALY   = 269.6894

EPHEMERIS_TYPE = 0
CLASSIFICATION_TYPE = U
NORAD_CAT_ID   = 68228
ELEMENT_SET_NO = 999
REV_AT_EPOCH   = 392
BSTAR          = .88451838E-3
MEAN_MOTION_DOT = .173279E-2
MEAN_MOTION_DDOT = 0

CCSDS_OMM_VERS = 2.0
CREATION_DATE  = 
ORIGINATOR     = 

OBJECT_NAME    = STARLINK-37081
OBJECT_ID      = 2026-053Y
CENTER_NAME    = EARTH
REF_FRAME      = TEME
TIME_SYSTEM    = UTC
MEAN_ELEMENT_THEORY = SGP/SGP4

EPOCH          = 2026-04-03T05:30:13.749120
MEAN_MOTION    = 15.75187931
ECCENTRICITY   = .00012907
INCLINATION    = 97.2835
RA_OF_ASC_NODE = 328.7296
ARG_OF_PERICENTER = 86.6994
MEAN_ANOMALY   = 273.4419

EPHEMERIS_TYPE = 0
CLASSIFICATION_TYPE = U
NORAD_CAT_ID   = 68229
ELEMENT_SET_NO = 999
REV_AT_EPOCH   = 393
BSTAR          = .45436355E-3
MEAN_MOTION_DOT = .68178E-3
MEAN_MOTION_DDOT = 0

CCSDS_OMM_VERS = 2.0
CREATION_DATE  = 
ORIGINATOR     = 

OBJECT_NAME    = STARLINK-37100
OBJECT_ID      = 2026-053Z
CENTER_NAME    = EARTH
REF_FRAME      = TEME
TIME_SYSTEM    = UTC
MEAN_ELEMENT_THEORY = SGP/SGP4

EPOCH          = 2026-04-03T06:40:09.169824
MEAN_MOTION    = 15.80882902
ECCENTRICITY   = .0001662
INCLINATION    = 97.2848
RA_OF_ASC_NODE = 328.8155
ARG_OF_PERICENTER = 92.2504
MEAN_ANOMALY   = 267.8954

EPHEMERIS_TYPE = 0
CLASSIFICATION_TYPE = U
NORAD_CAT_ID   = 68230
ELEMENT_SET_NO = 999
REV_AT_EPOCH   = 394
BSTAR          = .105165E-2
MEAN_MOTION_DOT = .206778E-2
MEAN_MOTION_DDOT = 0

CCSDS_OMM_VERS = 2.0
CREATION_DATE  = 
ORIGINATOR     = 

OBJECT_NAME    = STARLINK-37104
OBJECT_ID      = 2026-053AA
CENTER_NAME    = EARTH
REF_FRAME      = TEME
TIME_SYSTEM    = UTC
MEAN_ELEMENT_THEORY = SGP/SGP4

EPOCH          = 2026-04-03T06:39:03.924864
MEAN_MOTION    = 15.80875417
ECCENTRICITY   = .00011753
INCLINATION    = 97.2848
RA_OF_ASC_NODE = 328.8161
ARG_OF_PERICENTER = 117.3885
MEAN_ANOMALY   = 242.7503

EPHEMERIS_TYPE = 0
CLASSIFICATION_TYPE = U
NORAD_CAT_ID   = 68231
ELEMENT_SET_NO = 999
REV_AT_EPOCH   = 394
BSTAR          = .74867326E-3
MEAN_MOTION_DOT = .146085E-2
MEAN_MOTION_DDOT = 0

CCSDS_OMM_VERS = 2.0
CREATION_DATE  = 
ORIGINATOR     = 

OBJECT_NAME    = STARLINK-37027
OBJECT_ID      = 2026-054A
CENTER_NAME    = EARTH
REF_FRAME      = TEME
TIME_SYSTEM    = UTC
MEAN_ELEMENT_THEORY = SGP/SGP4

EPOCH          = 2026-04-03T07:14:35.990880
MEAN_MOTION    = 15.75257496
ECCENTRICITY   = .00013347
INCLINATION    = 53.1600
RA_OF_ASC_NODE = 189.5312
ARG_OF_PERICENTER = 105.7299
MEAN_ANOMALY   = 254.3869

EPHEMERIS_TYPE = 0
CLASSIFICATION_TYPE = U
NORAD_CAT_ID   = 68232
ELEMENT_SET_NO = 999
REV_AT_EPOCH   = 266
BSTAR          = .95866968E-3
MEAN_MOTION_DOT = .149049E-2
MEAN_MOTION_DDOT = 0

CCSDS_OMM_VERS = 2.0
CREATION_DATE  = 
ORIGINATOR     = 

OBJECT_NAME    = STARLINK-37132
OBJECT_ID      = 2026-054B
CENTER_NAME    = EARTH
REF_FRAME      = TEME
TIME_SYSTEM    = UTC
MEAN_ELEMENT_THEORY = SGP/SGP4

EPOCH          = 2026-04-03T06:48:36.798336
MEAN_MOTION    = 15.80963124
ECCENTRICITY   = .00017706
INCLINATION    = 53.1588
RA_OF_ASC_NODE = 189.4109
ARG_OF_PERICENTER = 160.3273
MEAN_ANOMALY   = 199.7818

EPHEMERIS_TYPE = 0
CLASSIFICATION_TYPE = U
NORAD_CAT_ID   = 68233
ELEMENT_SET_NO = 999
REV_AT_EPOCH   = 266
BSTAR          = .26605779E-2
MEAN_MOTION_DOT = .562402E-2
MEAN_MOTION_DDOT = 0

CCSDS_OMM_VERS = 2.0
CREATION_DATE  = 
ORIGINATOR     = 

OBJECT_NAME    = STARLINK-37101
OBJECT_ID      = 2026-054C
CENTER_NAME    = EARTH
REF_FRAME      = TEME
TIME_SYSTEM    = UTC
MEAN_ELEMENT_THEORY = SGP/SGP4

EPOCH          = 2026-04-03T06:00:00.999648
MEAN_MOTION    = 15.75126142
ECCENTRICITY   = .00014185
INCLINATION    = 53.1591
RA_OF_ASC_NODE = 189.6857
ARG_OF_PERICENTER = 96.7206
MEAN_ANOMALY   = 19.1759

EPHEMERIS_TYPE = 0
CLASSIFICATION_TYPE = U
NORAD_CAT_ID   = 68234
ELEMENT_SET_NO = 999
REV_AT_EPOCH   = 386
BSTAR          = .68236381E-3
MEAN_MOTION_DOT = .104744E-2
MEAN_MOTION_DDOT = 0

CCSDS_OMM_VERS = 2.0
CREATION_DATE  = 
ORIGINATOR     = 

OBJECT_NAME    = STARLINK-36963
OBJECT_ID      = 2026-054D
CENTER_NAME    = EARTH
REF_FRAME      = TEME
TIME_SYSTEM    = UTC
MEAN_ELEMENT_THEORY = SGP/SGP4

EPOCH          = 2026-04-03T07:08:32.002368
MEAN_MOTION    = 15.75259296
ECCENTRICITY   = .00016853
INCLINATION    = 53.1597
RA_OF_ASC_NODE = 189.5025
ARG_OF_PERICENTER = 138.2294
MEAN_ANOMALY   = 221.8855

EPHEMERIS_TYPE = 0
CLASSIFICATION_TYPE = U
NORAD_CAT_ID   = 68235
ELEMENT_SET_NO = 999
REV_AT_EPOCH   = 266
BSTAR          = .84107708E-3
MEAN_MOTION_DOT = .13041E-2
MEAN_MOTION_DDOT = 0

CCSDS_OMM_VERS = 2.0
CREATION_DATE  = 
ORIGINATOR     = 

OBJECT_NAME    = STARLINK-37127
OBJECT_ID      = 2026-054E
CENTER_NAME    = EARTH
REF_FRAME      = TEME
TIME_SYSTEM    = UTC
MEAN_ELEMENT_THEORY = SGP/SGP4

EPOCH          = 2026-04-03T07:21:36.080640
MEAN_MOTION    = 15.75314421
ECCENTRICITY   = .00012478
INCLINATION    = 53.1594
RA_OF_ASC_NODE = 189.5628
ARG_OF_PERICENTER = 101.4500
MEAN_ANOMALY   = 258.6660

EPHEMERIS_TYPE = 0
CLASSIFICATION_TYPE = U
NORAD_CAT_ID   = 68236
ELEMENT_SET_NO = 999
REV_AT_EPOCH   = 266
BSTAR          = .16593375E-2
MEAN_MOTION_DOT = .262635E-2
MEAN_MOTION_DDOT = 0

CCSDS_OMM_VERS = 2.0
CREATION_DATE  = 
ORIGINATOR     = 

OBJECT_NAME    = STARLINK-37095
OBJECT_ID      = 2026-054F
CENTER_NAME    = EARTH
REF_FRAME      = TEME
TIME_SYSTEM    = UTC
MEAN_ELEMENT_THEORY = SGP/SGP4

EPOCH          = 2026-04-03T07:15:03.897216
MEAN_MOTION    = 15.75284359
ECCENTRICITY   = .00016908
INCLINATION    = 53.1599
RA_OF_ASC_NODE = 189.5329
ARG_OF_PERICENTER = 142.9182
MEAN_ANOMALY   = 217.1956

EPHEMERIS_TYPE = 0
CLASSIFICATION_TYPE = U
NORAD_CAT_ID   = 68237
ELEMENT_SET_NO = 999
REV_AT_EPOCH   = 266
BSTAR          = .12857512E-2
MEAN_MOTION_DOT = .201618E-2
MEAN_MOTION_DDOT = 0

CCSDS_OMM_VERS = 2.0
CREATION_DATE  = 
ORIGINATOR     = 

OBJECT_NAME    = STARLINK-37097
OBJECT_ID      = 2026-054G
CENTER_NAME    = EARTH
REF_FRAME      = TEME
TIME_SYSTEM    = UTC
MEAN_ELEMENT_THEORY = SGP/SGP4

EPOCH          = 2026-04-03T06:43:11.998272
MEAN_MOTION    = 15.80911571
ECCENTRICITY   = .00011531
INCLINATION    = 53.1581
RA_OF_ASC_NODE = 189.3854
ARG_OF_PERICENTER = 96.7769
MEAN_ANOMALY   = 263.3385

EPHEMERIS_TYPE = 0
CLASSIFICATION_TYPE = U
NORAD_CAT_ID   = 68238
ELEMENT_SET_NO = 999
REV_AT_EPOCH   = 266
BSTAR          = .10389202E-2
MEAN_MOTION_DOT = .20978E-2
MEAN_MOTION_DDOT = 0

